STARLINK-37992          
1 69681U 26145E   26202.58335648 -.02277534  00000+0 -24208-1 0  9990
2 69681  97.2839  49.7292 0001594  85.9312 214.8729 15.67637686  5452
STARLINK-37997          
1 69682U 26145F   26202.58335648 -.02600010  00000+0 -25758-1 0  9991
2 69682  97.2840  49.7360 0001614  85.6192 230.5452 15.69226524  5452
STARLINK-37990          
1 69683U 26145G   26202.58335648 -.01022227  00000+0 -11644-1 0  9998
2 69683  97.2840  49.7229 0001052  81.1926 205.0053 15.64901399  5458
STARLINK-37951          
1 69684U 26145H   26202.52488052  .00177762  00000+0  11652-2 0  9993
2 69684  97.2846  49.6815 0001126  79.6828 280.4564 15.75246209  4176
STARLINK-37957          
1 69685U 26145J   26202.58335648 -.02487305  00000+0 -26136-1 0  9995
2 69685  97.2845  49.7365 0001640  90.3410 228.0013 15.67637200  5450
STARLINK-37968          
1 69686U 26145K   26202.58335648 -.02407973  00000+0 -35513-1 0  9998
2 69686  97.2848  49.7270 0001968  95.1148 188.9905 15.58924308  5455
STARLINK-37977          
1 69687U 26145L   26202.45929198 -.00899571  00000+0 -97620-2 0  9999
2 69687  97.2850  49.6179 0001241 130.3720 229.7649 15.65790928  4161
STARLINK-37908          
1 69688U 26145M   26202.58335648 -.02489751  00000+0 -23390-1 0  9994
2 69688  97.2847  49.7641 0001682  73.6852 305.9134 15.70343058  5450
STARLINK-37979          
1 69689U 26145N   26202.58335648 -.02409811  00000+0 -33907-1 0  9999
2 69689  97.2851  49.7398 0001814  93.7069 221.0070 15.60158076  5455
STARLINK-37940          
1 69690U 26145P   26202.58335648 -.02528495  00000+0 -23473-1 0  9998
2 69690  97.2844  49.7679 0001705  72.0469 316.7023 15.70679635  5454
STARLINK-37961          
1 69691U 26145Q   26202.51762680 -.00947372  00000+0 -10782-1 0  9998
2 69691  97.2850  49.6914 0000461 129.7444 230.3856 15.64729892  4171
STARLINK-37787          
1 69692U 26145R   26202.58335648 -.02501889  00000+0 -25201-1 0  9999
2 69692  97.2848  49.7771 0001697  70.9682 339.7869 15.68684393  5454
STARLINK-37962          
1 69693U 26145S   26202.58335648 -.02615711  00000+0 -24746-1 0  9993
2 69693  97.2850  49.7843 0001826  70.2364 357.7655 15.70350483  5458
STARLINK-37953          
1 69694U 26145T   26202.00060788  .00297267  00000+0  18498-2 0  9997
2 69694  97.2852  49.1705 0000593  91.2960 268.8374 15.76112840  4095
STARLINK-37926          
1 69695U 26145U   26202.58335648 -.02148244  00000+0 -27563-1 0  9997
2 69695  97.2851  49.7643 0001504  78.0028 292.8213 15.62717711  5456
STARLINK-37959          
1 69696U 26145V   26202.58335648 -.02476227  00000+0 -23481-1 0  9998
2 69696  97.2851  49.7805 0001778  68.3022 352.4320 15.70100663  5459
STARLINK-37976          
1 69697U 26145W   26202.58335648 -.02499583  00000+0 -25719-1 0  9995
2 69697  97.2851  49.7842 0001847  70.6815 358.3561 15.68163621  5456
STARLINK-37912          
1 69698U 26145X   26202.56724282  .00285977  00000+0  18484-2 0  9998
2 69698  97.2853  49.7778 0001391 125.8151 234.3243 15.75269027  4181
STARLINK-37974          
1 69699U 26145Y   26201.10540454  .00047977  00000+0  32061-3 0  9999
2 69699  97.2826  48.2458 0003196  71.4063 288.7550 15.75193191  3950
STARLINK-37955          
1 69700U 26145Z   26202.58335648 -.02074459  00000+0 -23357-1 0  9997
2 69700  97.2848  49.7904 0001633  68.6608  12.2066 15.65869026  5451
STRIX-8                 
1 69701U 26146A   26202.59224104  .00003855  00000+0  28413-3 0  9992
2 69701  41.9905 337.6553 0006424  70.1019 290.0500 15.04471307  3741
ELECTRON R/B            
1 69702U 26146B   26202.56097541  .00611172  13637-3  12939-2 0  9999
2 69702  42.0720 323.2718 0149671  65.4910 296.1470 15.81012649  3919
ELECTRON KICK STAGE R/B 
1 69703U 26146C   26202.58376025  .00003532  00000+0  25795-3 0  9995
2 69703  41.9889 337.5869 0008259  69.8614 290.3101 15.04976472  3740
STARLINK-38055          
1 69704U 26147A   26202.58335648 -.02377386  00000+0 -19634-1 0  9991
2 69704  97.2842 239.3292 0001805  79.3312  17.7746 15.73790853  4766
STARLINK-37898          
1 69705U 26147B   26202.58335648 -.02471891  00000+0 -25525-1 0  9994
2 69705  97.2846 239.3176 0001669  77.9359 349.9231 15.68039650  4769
STARLINK-37970          
1 69706U 26147C   26202.58335648 -.02409841  00000+0 -25423-1 0  9998
2 69706  97.2842 239.3160 0001642  74.0692 351.7586 15.67429400  4767
STARLINK-37975          
1 69707U 26147D   26202.58335648 -.02377848  00000+0 -20377-1 0  9993
2 69707  97.2842 239.3379 0001744  73.6947  36.3033 15.72936551  4760
STARLINK-37972          
1 69708U 26147E   26202.55957980  .00289555  00000+0  14586-2 0  9999
2 69708  97.2824 239.3225 0001451  87.5084 272.6350 15.80878694  4862
STARLINK-37963          
1 69709U 26147F   26202.58335648 -.02438402  00000+0 -23247-1 0  9998
2 69709  97.2843 239.3275 0001750  82.1234  11.6691 15.69920646  4769
STARLINK-37969          
1 69710U 26147G   26202.58335648 -.02446599  00000+0 -23473-1 0  9997
2 69710  97.2843 239.3304 0001833  84.8435  14.7771 15.69779248  4918
